AMOS-17                 
1 44479U 19050A   26115.57047924  .00000096  00000+0  00000+0 0  9999
2 44479   0.0115 309.9385 0001320 100.3288  25.7123  1.00275165 24656
